{
  "type": "FeatureCollection",
  "provenance": {
    "source": "GDELT (news aggregation)",
    "dataset": "Automated news-sourced incident reports",
    "years": [],
    "url": "https://www.gdeltproject.org/",
    "limitations": "UNVERIFIED beyond automated cross-source checks. Each report is either 'corroborated' (2+ independent outlets, same city/outcome, within 3 days) or 'single_source' (one outlet only) -- shown explicitly. Extracted automatically from article text via keyword/dateline matching, not human-reviewed. Early news reports can be wrong about cause or severity. Never shows a name or exact age -- city, age BAND, device, and outcome only. Always check the linked source(s) before treating any single report as fact."
  },
  "features": [
    {
      "type": "Feature",
      "geometry": {
        "type": "Point",
        "coordinates": [
          -95.0435373,
          45.1219492
        ]
      },
      "properties": {
        "city": "Willmar",
        "state": "MN",
        "location_precision": "city_state_mention",
        "device": "E-bike",
        "outcome": "Injury",
        "throttle_ambiguous": false,
        "age_band": "0-12 (child)",
        "confidence_tier": "single_source",
        "corroborating_domains": [
          "willmarradio.com"
        ],
        "sources": [
          {
            "domain": "willmarradio.com",
            "url": "https://www.willmarradio.com/news/child-injured-in-ebike-crash-near-cold-spring/article_2d120206-b6ed-4ab4-b0e8-af593cac7335.html",
            "date": "20261001T194500Z"
          }
        ],
        "date": "20261001T194500Z"
      }
    },
    {
      "type": "Feature",
      "geometry": {
        "type": "Point",
        "coordinates": [
          -83.6089968,
          40.6478171
        ]
      },
      "properties": {
        "city": "Kenton",
        "state": "OH",
        "location_precision": "city_state_mention",
        "device": "E-bike",
        "outcome": "Injury",
        "throttle_ambiguous": false,
        "age_band": "25-44",
        "confidence_tier": "single_source",
        "corroborating_domains": [
          "wktn.com"
        ],
        "sources": [
          {
            "domain": "wktn.com",
            "url": "https://wktn.com/news/marysville-woman-injured-in-e-bike-crash/",
            "date": "20261001T151500Z"
          }
        ],
        "date": "20261001T151500Z"
      }
    },
    {
      "type": "Feature",
      "geometry": {
        "type": "Point",
        "coordinates": [
          -88.2430932,
          40.1164841
        ]
      },
      "properties": {
        "city": "Champaign",
        "state": "IL",
        "location_precision": "city_state_mention",
        "device": "E-bike",
        "outcome": "Injury",
        "throttle_ambiguous": false,
        "age_band": "13-17 (teen)",
        "confidence_tier": "single_source",
        "corroborating_domains": [
          "news-gazette.com"
        ],
        "sources": [
          {
            "domain": "news-gazette.com",
            "url": "https://www.news-gazette.com/news/local/courts-police-fire/two-teens-injured-in-e-bike-vehicle-accident/article_5f77fb35-e859-4a1a-8307-0b298b47c9f8.html",
            "date": "20260930T190000Z"
          }
        ],
        "date": "20260930T190000Z"
      }
    }
  ]
}